{
    "links": {
        "self": "http://www.neowsapp.com/rest/v1/neo/3291349?api_key=iIulBulltgU6a56xZRHN4H3l9WmuAYTsLGpBGhQ2"
    },
    "id": "3291349",
    "neo_reference_id": "3291349",
    "name": "(2005 SG26)",
    "designation": "2005 SG26",
    "nasa_jpl_url": "http://ssd.jpl.nasa.gov/sbdb.cgi?sstr=3291349",
    "absolute_magnitude_h": 25.9,
    "estimated_diameter": {
        "kilometers": {
            "estimated_diameter_min": 0.0175612318,
            "estimated_diameter_max": 0.0392681082
        },
        "meters": {
            "estimated_diameter_min": 17.561231848,
            "estimated_diameter_max": 39.2681081809
        },
        "miles": {
            "estimated_diameter_min": 0.0109120402,
            "estimated_diameter_max": 0.0244000636
        },
        "feet": {
            "estimated_diameter_min": 57.6155918963,
            "estimated_diameter_max": 128.8323800441
        }
    },
    "is_potentially_hazardous_asteroid": false,
    "close_approach_data": [
        {
            "close_approach_date": "2005-10-05",
            "close_approach_date_full": "2005-Oct-05 15:37",
            "epoch_date_close_approach": 1128526620000,
            "relative_velocity": {
                "kilometers_per_second": "8.9029534022",
                "kilometers_per_hour": "32050.6322480708",
                "miles_per_hour": "19915.0164654749"
            },
            "miss_distance": {
                "astronomical": "0.0348876349",
                "lunar": "13.5712899761",
                "kilometers": "5219115.870377663",
                "miles": "3243008.2215632294"
            },
            "orbiting_body": "Earth"
        }
    ],
    "orbital_data": {
        "orbit_id": "9",
        "orbit_determination_date": "2017-04-06 09:10:24",
        "first_observation_date": "2005-09-29",
        "last_observation_date": "2005-10-07",
        "data_arc_in_days": 8,
        "observations_used": 22,
        "orbit_uncertainty": "8",
        "minimum_orbit_intersection": ".0312569",
        "jupiter_tisserand_invariant": "3.202",
        "epoch_osculation": "2453645.5",
        "eccentricity": ".5942565839813374",
        "semi_major_axis": "2.481265110272488",
        "inclination": "5.92183605293121",
        "ascending_node_longitude": "184.9744616734386",
        "orbital_period": "1427.605393840457",
        "perihelion_distance": "1.006756981889883",
        "perihelion_argument": "207.8085793464203",
        "aphelion_distance": "3.955773238655093",
        "perihelion_time": "2453665.331384251464",
        "mean_anomaly": "354.9991094448577",
        "mean_motion": ".252170523838909",
        "equinox": "J2000",
        "orbit_class": {
            "orbit_class_type": "APO",
            "orbit_class_description": "Near-Earth asteroid orbits which cross the Earth’s orbit similar to that of 1862 Apollo",
            "orbit_class_range": "a (semi-major axis) > 1.0 AU; q (perihelion) < 1.017 AU"
        }
    },
    "is_sentry_object": false
}